[{"OBJECT_NAME":"OBJECT AD","OBJECT_ID":"2023-085AD","EPOCH":"2026-03-09T21:41:29.115744","MEAN_MOTION":15.31779154,"ECCENTRICITY":0.00101154,"INCLINATION":97.4841,"RA_OF_ASC_NODE":180.2223,"ARG_OF_PERICENTER":77.5993,"MEAN_ANOMALY":282.638,"EPHEMERIS_TYPE":0,"CLASSIFICATION_TYPE":"U","NORAD_CAT_ID":57031,"ELEMENT_SET_NO":999,"REV_AT_EPOCH":15156,"BSTAR":0.00068352515,"MEAN_MOTION_DOT":0.00020961,"MEAN_MOTION_DDOT":0},{"OBJECT_NAME":"STARLINK-34080","OBJECT_ID":"2025-110W","EPOCH":"2026-03-09T03:47:36.322656","MEAN_MOTION":15.30152732,"ECCENTRICITY":0.00011788,"INCLINATION":53.1613,"RA_OF_ASC_NODE":29.0457,"ARG_OF_PERICENTER":71.3532,"MEAN_ANOMALY":288.7597,"EPHEMERIS_TYPE":0,"CLASSIFICATION_TYPE":"U","NORAD_CAT_ID":64116,"ELEMENT_SET_NO":999,"REV_AT_EPOCH":4579,"BSTAR":0.00034707027,"MEAN_MOTION_DOT":9.919e-5,"MEAN_MOTION_DDOT":0}]
